COMMENT,ORIGINATOR,NORAD_CAT_ID,OBJECT_NAME,OBJECT_TYPE,CLASSIFICATION_TYPE,INTLDES,EPOCH,EPOCH_MICROSECONDS,MEAN_MOTION,ECCENTRICITY,INCLINATION,RA_OF_ASC_NODE,ARG_OF_PERICENTER,MEAN_ANOMALY,EPHEMERIS_TYPE,ELEMENT_SET_NO,REV_AT_EPOCH,BSTAR,MEAN_MOTION_DOT,MEAN_MOTION_DDOT,FILE,TLE_LINE0,TLE_LINE1,TLE_LINE2,OBJECT_ID,OBJECT_NUMBER,SEMIMAJOR_AXIS,PERIOD,APOGEE,PERIGEE,DECAYED
"GENERATED VIA SPACETRACK.ORG API","18 SPCS","48890","SPACEBEE-104","PAYLOAD","U","21059M","2021-09-16 08:27:24","471648","15.11962951","0.0009036","97.5225","26.9064","338.0632","22.021","0","999","1247","0.000039947","0.00000621","0","3116930","0 SPACEBEE-104","1 48890U 21059M   21259.35236657  .00000621  00000-0  39947-4 0  9997","2 48890  97.5225  26.9064 0009036 338.0632  22.0210 15.11962951 12472","2021-059M","48890","6908.351","95.240","536.459","523.974","0"
"GENERATED VIA SPACETRACK.ORG API","18 SPCS","48890","SPACEBEE-104","PAYLOAD","U","21059M","2021-09-16 08:27:24","471648","15.11962951","0.0009036","97.5225","26.9064","338.0632","22.021","0","999","1247","0.000039947","0.00000621","0","3117121","0 SPACEBEE-104","1 48890U 21059M   21259.35236657  .00000621  00000-0  39947-4 0  9997","2 48890  97.5225  26.9064 0009036 338.0632  22.0210 15.11962951 12472","2021-059M","48890","6908.351","95.240","536.459","523.974","0"
"GENERATED VIA SPACETRACK.ORG API","18 SPCS","48890","SPACEBEE-104","PAYLOAD","U","21059M","2021-09-16 17:59:12","683040","15.11963332","0.0008975","97.5226","27.2974","336.5621","23.5199","0","999","1253","0.000036844","0.00000568","0","3117438","0 SPACEBEE-104","1 48890U 21059M   21259.74945235  .00000568  00000-0  36844-4 0  9992","2 48890  97.5226  27.2974 0008975 336.5621  23.5199 15.11963332 12532","2021-059M","48890","6908.350","95.240","536.415","524.015","0"
"GENERATED VIA SPACETRACK.ORG API","18 SPCS","48890","SPACEBEE-104","PAYLOAD","U","21059M","2021-09-17 08:16:55","10496","15.11963689","0.0008926","97.5226","27.8839","334.4057","25.673","0","999","1262","0.000031417","0.00000475","0","3117657","0 SPACEBEE-104","1 48890U 21059M   21260.34508114  .00000475  00000-0  31417-4 0  9999","2 48890  97.5226  27.8839 0008926 334.4057  25.6730 15.11963689 12623","2021-059M","48890","6908.349","95.240","536.380","524.048","0"
"GENERATED VIA SPACETRACK.ORG API","18 SPCS","48890","SPACEBEE-104","PAYLOAD","U","21059M","2021-09-17 14:38:07","143360","15.11964025","0.00089","97.5227","28.1446","333.4466","26.6307","0","999","1266","0.000030899","0.00000466","0","3117790","0 SPACEBEE-104","1 48890U 21059M   21260.60980490  .00000466  00000-0  30899-4 0  9992","2 48890  97.5227  28.1446 0008900 333.4466  26.6307 15.11964025 12667","2021-059M","48890","6908.348","95.240","536.361","524.065","0"
"GENERATED VIA SPACETRACK.ORG API","18 SPCS","48890","SPACEBEE-104","PAYLOAD","U","21059M","2021-09-17 17:48:43","208928","15.11964049","0.0008887","97.5228","28.275","332.9182","27.1584","0","999","1268","0.000028862","0.00000431","0","3118116","0 SPACEBEE-104","1 48890U 21059M   21260.74216677  .00000431  00000-0  28862-4 0  9995","2 48890  97.5228  28.2750 0008887 332.9182  27.1584 15.11964049 12681","2021-059M","48890","6908.348","95.240","536.352","524.073","0"
"GENERATED VIA SPACETRACK.ORG API","18 SPCS","48890","SPACEBEE-104","PAYLOAD","U","21059M","2021-09-18 14:27:37","615680","15.1196467","0.0008813","97.523","29.1222","329.7697","30.3024","0","999","1281","0.000023549","0.0000034","0","3118594","0 SPACEBEE-104","1 48890U 21059M   21261.60251870  .00000340  00000-0  23549-4 0  9991","2 48890  97.5230  29.1222 0008813 329.7697  30.3024 15.11964670 12812","2021-059M","48890","6908.346","95.240","536.299","524.123","0"
"GENERATED VIA SPACETRACK.ORG API","18 SPCS","48890","SPACEBEE-104","PAYLOAD","U","21059M","2021-09-19 07:55:56","21664","15.1196451","0.0008703","97.5231","29.8392","327.0396","33.0291","0","999","1292","0.000016557","0.0000022","0","3120015","0 SPACEBEE-104","1 48890U 21059M   21262.33050951  .00000220  00000-0  16557-4 0  9997","2 48890  97.5231  29.8392 0008703 327.0396  33.0291 15.11964510 12924","2021-059M","48890","6908.346","95.240","536.224","524.199","0"
"GENERATED VIA SPACETRACK.ORG API","18 SPCS","48890","SPACEBEE-104","PAYLOAD","U","21059M","2021-09-19 20:38:20","282208","15.11964984","0.0008659","97.5232","30.3606","325.0731","34.993","0","999","1300","0.000018106","0.00000246","0","3120378","0 SPACEBEE-104","1 48890U 21059M   21262.85995697  .00000246  00000-0  18106-4 0  9999","2 48890  97.5232  30.3606 0008659 325.0731  34.9930 15.11964984 13006","2021-059M","48890","6908.345","95.240","536.192","524.228","0"
"GENERATED VIA SPACETRACK.ORG API","18 SPCS","48890","SPACEBEE-104","PAYLOAD","U","21059M","2021-09-20 07:45:26","526816","15.11965153","0.0008611","97.5234","30.8168","323.3097","36.7543","0","999","1307","0.000018447","0.00000252","0","3120929","0 SPACEBEE-104","1 48890U 21059M   21263.32322369  .00000252  00000-0  18447-4 0  9997","2 48890  97.5234  30.8168 0008611 323.3097  36.7543 15.11965153 13076","2021-059M","48890","6908.345","95.240","536.158","524.261","0"
"GENERATED VIA SPACETRACK.ORG API","18 SPCS","48890","SPACEBEE-104","PAYLOAD","U","21059M","2021-09-20 07:45:26","526816","15.11965153","0.0008611","97.5234","30.8168","323.3097","36.7543","0","999","1307","0.000018447","0.00000252","0","3121163","0 SPACEBEE-104","1 48890U 21059M   21263.32322369  .00000252  00000-0  18447-4 0  9997","2 48890  97.5234  30.8168 0008611 323.3097  36.7543 15.11965153 13076","2021-059M","48890","6908.345","95.240","536.158","524.261","0"
"GENERATED VIA SPACETRACK.ORG API","18 SPCS","48890","SPACEBEE-104","PAYLOAD","U","21059M","2021-09-21 07:34:57","159840","15.11962355","0.0008393","97.5229","31.7937","319.7484","40.3125","0","999","1322","-0.000030197","-0.00000582","0","3121847","0 SPACEBEE-104","1 48890U 21059M   21264.31593935 -.00000582  00000-0 -30197-4 0  9990","2 48890  97.5229  31.7937 0008393 319.7484  40.3125 15.11962355 13225","2021-059M","48890","6908.353","95.240","536.016","524.420","0"
"GENERATED VIA SPACETRACK.ORG API","18 SPCS","48890","SPACEBEE-104","PAYLOAD","U","21059M","2021-09-22 07:24:27","713376","15.11962299","0.0008586","97.5231","32.7722","315.3925","44.6614","0","999","1337","-0.000012052","-0.00000271","0","3123417","0 SPACEBEE-104","1 48890U 21059M   21265.30865409 -.00000271  00000-0 -12052-4 0  9993","2 48890  97.5231  32.7722 0008586 315.3925  44.6614 15.11962299 13370","2021-059M","48890","6908.353","95.240","536.150","524.287","0"
"GENERATED VIA SPACETRACK.ORG API","18 SPCS","48890","SPACEBEE-104","PAYLOAD","U","21059M","2021-09-22 15:20:57","902784","15.11962439","0.0008563","97.5232","33.0981","313.9963","46.0561","0","999","1342","-0.0000086437","-0.00000213","0","3123566","0 SPACEBEE-104","1 48890U 21059M   21265.63955906 -.00000213  00000-0 -86437-5 0  9996","2 48890  97.5232  33.0981 0008563 313.9963  46.0561 15.11962439 13422","2021-059M","48890","6908.353","95.240","536.133","524.302","0"
"GENERATED VIA SPACETRACK.ORG API","18 SPCS","48890","SPACEBEE-104","PAYLOAD","U","21059M","2021-09-22 15:20:57","902784","15.11962439","0.0008563","97.5232","33.0981","313.9963","46.0561","0","999","1342","-0.0000086437","-0.00000213","0","3123736","0 SPACEBEE-104","1 48890U 21059M   21265.63955906 -.00000213  00000-0 -86437-5 0  9996","2 48890  97.5232  33.0981 0008563 313.9963  46.0561 15.11962439 13422","2021-059M","48890","6908.353","95.240","536.133","524.302","0"
"GENERATED VIA SPACETRACK.ORG API","18 SPCS","48890","SPACEBEE-104","PAYLOAD","U","21059M","2021-09-23 04:03:22","64832","15.11965183","0.0008613","97.5238","33.6201","312.4073","47.6428","0","999","1350","0.000023476","0.00000338","0","3124856","0 SPACEBEE-104","1 48890U 21059M   21266.16900538  .00000338  00000-0  23476-4 0  9995","2 48890  97.5238  33.6201 0008613 312.4073  47.6428 15.11965183 13508","2021-059M","48890","6908.344","95.240","536.160","524.259","0"
"GENERATED VIA SPACETRACK.ORG API","18 SPCS","48890","SPACEBEE-104","PAYLOAD","U","21059M","2021-09-23 19:56:22","429824","15.1196658","0.0008364","97.5237","34.2714","309.9606","50.0889","0","999","1360","0.000044534","0.000007","0","3125337","0 SPACEBEE-104","1 48890U 21059M   21266.83081516  .00000700  00000-0  44534-4 0  9996","2 48890  97.5237  34.2714 0008364 309.9606  50.0889 15.11966580 13601","2021-059M","48890","6908.340","95.240","535.983","524.427","0"
"GENERATED VIA SPACETRACK.ORG API","18 SPCS","48890","SPACEBEE-104","PAYLOAD","U","21059M","2021-09-23 19:56:22","429824","15.1196658","0.0008364","97.5237","34.2714","309.9606","50.0889","0","999","1360","0.000044534","0.000007","0","3125560","0 SPACEBEE-104","1 48890U 21059M   21266.83081516  .00000700  00000-0  44534-4 0  9996","2 48890  97.5237  34.2714 0008364 309.9606  50.0889 15.11966580 13601","2021-059M","48890","6908.340","95.240","535.983","524.427","0"
"GENERATED VIA SPACETRACK.ORG API","18 SPCS","48890","SPACEBEE-104","PAYLOAD","U","21059M","2021-09-24 07:03:28","595808","15.11967124","0.0008344","97.5237","34.7277","308.0698","51.9779","0","999","1367","0.000043603","0.00000684","0","3126002","0 SPACEBEE-104","1 48890U 21059M   21267.29408097  .00000684  00000-0  43603-4 0  9991","2 48890  97.5237  34.7277 0008344 308.0698  51.9779 15.11967124 13679","2021-059M","48890","6908.338","95.240","535.968","524.439","0"
"GENERATED VIA SPACETRACK.ORG API","18 SPCS","48890","SPACEBEE-104","PAYLOAD","U","21059M","2021-09-24 21:21:10","774656","15.11968652","0.0008324","97.5239","35.3143","305.8188","54.2269","0","999","1376","0.000050186","0.00000797","0","3126800","0 SPACEBEE-104","1 48890U 21059M   21267.88970804  .00000797  00000-0  50186-4 0  9995","2 48890  97.5239  35.3143 0008324 305.8188  54.2269 15.11968652 13764","2021-059M","48890","6908.334","95.240","535.949","524.448","0"
